<?xml version="1.0" encoding="UTF-8"?>
<ndm xmlns:xsi="http://www.w3.org/2001/XMLSchema-instance" xsi:noNamespaceSchemaLocation="https://sanaregistry.org/r/ndmxml_unqualified/ndmxml-2.0.0-master-2.0.xsd">
<omm id="CCSDS_OMM_VERS" version="2.0">
<header><CREATION_DATE/><ORIGINATOR/></header><body><segment><metadata><OBJECT_NAME>IRIDIUM 36</OBJECT_NAME><OBJECT_ID>1997-056C</OBJECT_ID><CENTER_NAME>EARTH</CENTER_NAME><REF_FRAME>TEME</REF_FRAME><TIME_SYSTEM>UTC</TIME_SYSTEM><MEAN_ELEMENT_THEORY>SGP4</MEAN_ELEMENT_THEORY></metadata><data><meanElements><EPOCH>2024-10-28T21:23:27.360096</EPOCH><MEAN_MOTION>14.37159788</MEAN_MOTION><ECCENTRICITY>.0002517</ECCENTRICITY><INCLINATION>86.3922</INCLINATION><RA_OF_ASC_NODE>270.1184</RA_OF_ASC_NODE><ARG_OF_PERICENTER>84.1591</ARG_OF_PERICENTER><MEAN_ANOMALY>275.9893</MEAN_ANOMALY></meanElements><tleParameters><EPHEMERIS_TYPE>0</EPHEMERIS_TYPE><CLASSIFICATION_TYPE>U</CLASSIFICATION_TYPE><NORAD_CAT_ID>24967</NORAD_CAT_ID><ELEMENT_SET_NO>999</ELEMENT_SET_NO><REV_AT_EPOCH>41899</REV_AT_EPOCH><BSTAR>.63023E-3</BSTAR><MEAN_MOTION_DOT>.1892E-4</MEAN_MOTION_DOT><MEAN_MOTION_DDOT>0</MEAN_MOTION_DDOT></tleParameters></data></segment></body></omm>
<omm id="CCSDS_OMM_VERS" version="2.0">
<header><CREATION_DATE/><ORIGINATOR/></header><body><segment><metadata><OBJECT_NAME>IRIDIUM 39</OBJECT_NAME><OBJECT_ID>1997-069D</OBJECT_ID><CENTER_NAME>EARTH</CENTER_NAME><REF_FRAME>TEME</REF_FRAME><TIME_SYSTEM>UTC</TIME_SYSTEM><MEAN_ELEMENT_THEORY>SGP4</MEAN_ELEMENT_THEORY></metadata><data><meanElements><EPOCH>2024-10-29T02:53:10.119264</EPOCH><MEAN_MOTION>14.48518314</MEAN_MOTION><ECCENTRICITY>.001818</ECCENTRICITY><INCLINATION>86.3878</INCLINATION><RA_OF_ASC_NODE>310.2165</RA_OF_ASC_NODE><ARG_OF_PERICENTER>5.9868</ARG_OF_PERICENTER><MEAN_ANOMALY>354.1550</MEAN_ANOMALY></meanElements><tleParameters><EPHEMERIS_TYPE>0</EPHEMERIS_TYPE><CLASSIFICATION_TYPE>U</CLASSIFICATION_TYPE><NORAD_CAT_ID>25042</NORAD_CAT_ID><ELEMENT_SET_NO>999</ELEMENT_SET_NO><REV_AT_EPOCH>41576</REV_AT_EPOCH><BSTAR>.74719E-3</BSTAR><MEAN_MOTION_DOT>.2829E-4</MEAN_MOTION_DOT><MEAN_MOTION_DDOT>0</MEAN_MOTION_DDOT></tleParameters></data></segment></body></omm>
<omm id="CCSDS_OMM_VERS" version="2.0">
<header><CREATION_DATE/><ORIGINATOR/></header><body><segment><metadata><OBJECT_NAME>IRIDIUM 38</OBJECT_NAME><OBJECT_ID>1997-069E</OBJECT_ID><CENTER_NAME>EARTH</CENTER_NAME><REF_FRAME>TEME</REF_FRAME><TIME_SYSTEM>UTC</TIME_SYSTEM><MEAN_ELEMENT_THEORY>SGP4</MEAN_ELEMENT_THEORY></metadata><data><meanElements><EPOCH>2024-10-28T18:51:14.486112</EPOCH><MEAN_MOTION>14.37646659</MEAN_MOTION><ECCENTRICITY>.0003812</ECCENTRICITY><INCLINATION>86.3953</INCLINATION><RA_OF_ASC_NODE>330.5397</RA_OF_ASC_NODE><ARG_OF_PERICENTER>113.1267</ARG_OF_PERICENTER><MEAN_ANOMALY>247.0332</MEAN_ANOMALY></meanElements><tleParameters><EPHEMERIS_TYPE>0</EPHEMERIS_TYPE><CLASSIFICATION_TYPE>U</CLASSIFICATION_TYPE><NORAD_CAT_ID>25043</NORAD_CAT_ID><ELEMENT_SET_NO>999</ELEMENT_SET_NO><REV_AT_EPOCH>41270</REV_AT_EPOCH><BSTAR>.56659E-3</BSTAR><MEAN_MOTION_DOT>.172E-4</MEAN_MOTION_DOT><MEAN_MOTION_DDOT>0</MEAN_MOTION_DDOT></tleParameters></data></segment></body></omm>
<omm id="CCSDS_OMM_VERS" version="2.0">
<header><CREATION_DATE/><ORIGINATOR/></header><body><segment><metadata><OBJECT_NAME>IRIDIUM 42</OBJECT_NAME><OBJECT_ID>1997-077A</OBJECT_ID><CENTER_NAME>EARTH</CENTER_NAME><REF_FRAME>TEME</REF_FRAME><TIME_SYSTEM>UTC</TIME_SYSTEM><MEAN_ELEMENT_THEORY>SGP4</MEAN_ELEMENT_THEORY></metadata><data><meanElements><EPOCH>2024-10-28T20:36:18.498816</EPOCH><MEAN_MOTION>14.35918838</MEAN_MOTION><ECCENTRICITY>.000262</ECCENTRICITY><INCLINATION>86.3970</INCLINATION><RA_OF_ASC_NODE>336.3924</RA_OF_ASC_NODE><ARG_OF_PERICENTER>106.0184</ARG_OF_PERICENTER><MEAN_ANOMALY>254.1301</MEAN_ANOMALY></meanElements><tleParameters><EPHEMERIS_TYPE>0</EPHEMERIS_TYPE><CLASSIFICATION_TYPE>U</CLASSIFICATION_TYPE><NORAD_CAT_ID>25077</NORAD_CAT_ID><ELEMENT_SET_NO>999</ELEMENT_SET_NO><REV_AT_EPOCH>40799</REV_AT_EPOCH><BSTAR>.55517E-3</BSTAR><MEAN_MOTION_DOT>.1629E-4</MEAN_MOTION_DOT><MEAN_MOTION_DDOT>0</MEAN_MOTION_DDOT></tleParameters></data></segment></body></omm>
<omm id="CCSDS_OMM_VERS" version="2.0">
<header><CREATION_DATE/><ORIGINATOR/></header><body><segment><metadata><OBJECT_NAME>IRIDIUM 44</OBJECT_NAME><OBJECT_ID>1997-077B</OBJECT_ID><CENTER_NAME>EARTH</CENTER_NAME><REF_FRAME>TEME</REF_FRAME><TIME_SYSTEM>UTC</TIME_SYSTEM><MEAN_ELEMENT_THEORY>SGP4</MEAN_ELEMENT_THEORY></metadata><data><meanElements><EPOCH>2024-10-28T19:26:06.205056</EPOCH><MEAN_MOTION>14.39767891</MEAN_MOTION><ECCENTRICITY>.0004042</ECCENTRICITY><INCLINATION>86.3931</INCLINATION><RA_OF_ASC_NODE>318.9527</RA_OF_ASC_NODE><ARG_OF_PERICENTER>80.5613</ARG_OF_PERICENTER><MEAN_ANOMALY>279.6042</MEAN_ANOMALY></meanElements><tleParameters><EPHEMERIS_TYPE>0</EPHEMERIS_TYPE><CLASSIFICATION_TYPE>U</CLASSIFICATION_TYPE><NORAD_CAT_ID>25078</NORAD_CAT_ID><ELEMENT_SET_NO>999</ELEMENT_SET_NO><REV_AT_EPOCH>41040</REV_AT_EPOCH><BSTAR>.59921E-3</BSTAR><MEAN_MOTION_DOT>.1897E-4</MEAN_MOTION_DOT><MEAN_MOTION_DDOT>0</MEAN_MOTION_DDOT></tleParameters></data></segment></body></omm>
<omm id="CCSDS_OMM_VERS" version="2.0">
<header><CREATION_DATE/><ORIGINATOR/></header><body><segment><metadata><OBJECT_NAME>IRIDIUM 45</OBJECT_NAME><OBJECT_ID>1997-082A</OBJECT_ID><CENTER_NAME>EARTH</CENTER_NAME><REF_FRAME>TEME</REF_FRAME><TIME_SYSTEM>UTC</TIME_SYSTEM><MEAN_ELEMENT_THEORY>SGP4</MEAN_ELEMENT_THEORY></metadata><data><meanElements><EPOCH>2024-10-28T20:46:46.003008</EPOCH><MEAN_MOTION>15.10337497</MEAN_MOTION><ECCENTRICITY>.0145607</ECCENTRICITY><INCLINATION>86.3680</INCLINATION><RA_OF_ASC_NODE>159.1712</RA_OF_ASC_NODE><ARG_OF_PERICENTER>110.5186</ARG_OF_PERICENTER><MEAN_ANOMALY>251.1748</MEAN_ANOMALY></meanElements><tleParameters><EPHEMERIS_TYPE>0</EPHEMERIS_TYPE><CLASSIFICATION_TYPE>U</CLASSIFICATION_TYPE><NORAD_CAT_ID>25104</NORAD_CAT_ID><ELEMENT_SET_NO>999</ELEMENT_SET_NO><REV_AT_EPOCH>41698</REV_AT_EPOCH><BSTAR>.17826E-2</BSTAR><MEAN_MOTION_DOT>.37834E-3</MEAN_MOTION_DOT><MEAN_MOTION_DDOT>0</MEAN_MOTION_DDOT></tleParameters></data></segment></body></omm>
<omm id="CCSDS_OMM_VERS" version="2.0">
<header><CREATION_DATE/><ORIGINATOR/></header><body><segment><metadata><OBJECT_NAME>IRIDIUM 24</OBJECT_NAME><OBJECT_ID>1997-082B</OBJECT_ID><CENTER_NAME>EARTH</CENTER_NAME><REF_FRAME>TEME</REF_FRAME><TIME_SYSTEM>UTC</TIME_SYSTEM><MEAN_ELEMENT_THEORY>SGP4</MEAN_ELEMENT_THEORY></metadata><data><meanElements><EPOCH>2024-10-28T22:32:26.600928</EPOCH><MEAN_MOTION>14.41605682</MEAN_MOTION><ECCENTRICITY>.0013153</ECCENTRICITY><INCLINATION>86.3965</INCLINATION><RA_OF_ASC_NODE>178.2933</RA_OF_ASC_NODE><ARG_OF_PERICENTER>116.2443</ARG_OF_PERICENTER><MEAN_ANOMALY>244.0110</MEAN_ANOMALY></meanElements><tleParameters><EPHEMERIS_TYPE>0</EPHEMERIS_TYPE><CLASSIFICATION_TYPE>U</CLASSIFICATION_TYPE><NORAD_CAT_ID>25105</NORAD_CAT_ID><ELEMENT_SET_NO>999</ELEMENT_SET_NO><REV_AT_EPOCH>41014</REV_AT_EPOCH><BSTAR>.54039E-3</BSTAR><MEAN_MOTION_DOT>.1779E-4</MEAN_MOTION_DOT><MEAN_MOTION_DDOT>0</MEAN_MOTION_DDOT></tleParameters></data></segment></body></omm>
<omm id="CCSDS_OMM_VERS" version="2.0">
<header><CREATION_DATE/><ORIGINATOR/></header><body><segment><metadata><OBJECT_NAME>IRIDIUM 51</OBJECT_NAME><OBJECT_ID>1998-018A</OBJECT_ID><CENTER_NAME>EARTH</CENTER_NAME><REF_FRAME>TEME</REF_FRAME><TIME_SYSTEM>UTC</TIME_SYSTEM><MEAN_ELEMENT_THEORY>SGP4</MEAN_ELEMENT_THEORY></metadata><data><meanElements><EPOCH>2024-10-28T21:53:24.558720</EPOCH><MEAN_MOTION>15.20149949</MEAN_MOTION><ECCENTRICITY>.0127238</ECCENTRICITY><INCLINATION>86.3955</INCLINATION><RA_OF_ASC_NODE>168.5456</RA_OF_ASC_NODE><ARG_OF_PERICENTER>47.6587</ARG_OF_PERICENTER><MEAN_ANOMALY>313.5348</MEAN_ANOMALY></meanElements><tleParameters><EPHEMERIS_TYPE>0</EPHEMERIS_TYPE><CLASSIFICATION_TYPE>U</CLASSIFICATION_TYPE><NORAD_CAT_ID>25262</NORAD_CAT_ID><ELEMENT_SET_NO>999</ELEMENT_SET_NO><REV_AT_EPOCH>41166</REV_AT_EPOCH><BSTAR>.20731E-2</BSTAR><MEAN_MOTION_DOT>.56128E-3</MEAN_MOTION_DOT><MEAN_MOTION_DDOT>0</MEAN_MOTION_DDOT></tleParameters></data></segment></body></omm>

</ndm>
